SL-16 R/B               
1 25400U 98043G   25354.86730980  .00000026  00000+0  29783-4 0  9995
2 25400  98.8138 302.7313 0008867 240.3471 119.6826 14.26027257427753
SL-16 R/B               
1 25407U 98045B   25354.39317263  .00000154  00000+0  10183-3 0  9992
2 25407  71.0115 348.3313 0006512 164.2066 195.9261 14.16175206415870
ISS (ZARYA)             
1 25544U 98067A   25354.66673768  .00007293  00000+0  13711-3 0  9994
2 25544  51.6321 103.2234 0003163 277.4707  82.5922 15.49686708544085
CZ-4B R/B               
1 25732U 99025C   25354.88429495  .00000052  00000+0  46055-4 0  9992
2 25732  98.6756  35.9818 0036631 210.1491 322.8499 14.18245521376997
OKEAN-O                 
1 25860U 99039A   25354.90168835  .00000541  00000+0  78109-4 0  9998
2 25860  97.9590  50.5324 0001009 111.8571 248.2749 14.80174388422733
SL-16 R/B               
1 25861U 99039B   25354.75386886  .00000402  00000+0  58019-4 0  9994
2 25861  98.0114  48.9053 0015533 149.3174 210.8950 14.81596863425177
DELTA 2 R/B             
1 25876U 99041E   25354.92751095  .00000599  00000+0  13663-3 0  9992
2 25876  51.7610 255.7609 0504530 115.8973 249.4857 14.11420933351900
HELIOS 1B               
1 25977U 99064A   25354.67487955  .00001193  00000+0  13873-3 0  9996
2 25977  98.1757 249.5759 0001243  33.3497 326.7796 14.87309902673514
TERRA                   
1 25994U 99068A   25354.90588591  .00000328  00000+0  76124-4 0  9991
2 25994  97.9736  46.2903 0003530  78.3423  94.5294 14.60910196383570
SL-16 R/B               
1 26070U 00006B   25354.81188866 -.00000119  00000+0 -36317-4 0  9992
2 26070  71.0018 263.6852 0018576 297.6963  62.2275 14.15808395337398
TITAN 4B R/B            
1 26474U 00047B   25354.89682725  .00002319  00000+0  15310-3 0  9997
2 26474  67.9897 261.9452 0038347 134.7947 225.6332 15.08834949381028
ENVISAT                 
1 27386U 02009A   25352.94754304  .00000081  00000+0  39999-4 0  9991
2 27386  98.3609 303.5309 0001126  84.8976 298.2993 14.39001403247569
